THAICOM 6               
1 39500U 14002A   26118.93377679 -.00000124  00000+0  00000+0 0  9999
2 39500   0.0528 104.0830 0004334 343.3458 184.1396  1.00270352 44969
TDRS 12                 
1 39504U 14004A   26118.99662957 -.00000273  00000+0  00000+0 0  9992
2 39504   3.9306  18.2658 0001678 244.5055 272.0512  1.00269069 43785
ABS-2                   
1 39508U 14006A   26118.93308346 -.00000090  00000+0  00000+0 0  9998
2 39508   0.0589  72.8750 0003665 328.1808 226.6740  1.00271983 44789
ATHENA-FIDUS            
1 39509U 14006B   26118.92571676  .00000150  00000+0  00000+0 0  9992
2 39509   0.0138 263.4336 0001639 137.8468 186.6599  1.00272538 44597
TURKSAT 4A              
1 39522U 14007A   26118.92658343  .00000142  00000+0  00000+0 0  9996
2 39522   0.0405 296.8052 0003232  29.2494 266.3952  1.00271751 44470
EXPRESS-AT1             
1 39612U 14010A   26118.92970344  .00000059  00000+0  00000+0 0  9995
2 39612   0.1315  84.1419 0001990  16.5469 148.6915  1.00289891 44325
EXPRESS-AT2             
1 39613U 14010B   26118.92935677  .00000000  00000+0  00000+0 0  9992
2 39613   0.0196 256.1672 0000491  48.6438 302.6503  1.00269704 44002
AMAZONAS 4A             
1 39616U 14011A   26118.90361668 -.00000256  00000+0  00000+0 0  9991
2 39616   0.0591 161.3052 0002644 255.6809  51.1895  1.00272753 44218
ASTRA 5B                
1 39617U 14011B   26118.92294341  .00000133  00000+0  00000+0 0  9990
2 39617   0.0637 310.4306 0002676  68.4935 193.7089  1.00270982 44179
IRNSS-1B                
1 39635U 14017A   26118.92901010  .00000080  00000+0  00000+0 0  9995
2 39635  29.0104 241.2493 0023503 182.4004 182.6098  1.00273572 44303
LUCH-5V                 
1 39727U 14023A   26118.93698538 -.00000270  00000+0  00000+0 0  9995
2 39727   5.0145  70.2293 0002423 342.5669 236.1877  1.00271422 43868
KAZSAT-3                
1 39728U 14023B   26118.92987678  .00000000  00000+0  00000+0 0  9991
2 39728   0.0205  77.3033 0000166 171.9658   0.8839  1.00271279 41968
EUTELSAT 3B             
1 39773U 14030A   26118.91887007  .00000016  00000+0  00000+0 0  9990
2 39773   0.0684 344.1801 0003910  54.9042 151.6993  1.00272330 43578
ASIASAT 8 (AMOS-7)      
1 40107U 14046A   26118.93915206 -.00000337  00000+0  00000+0 0  9992
2 40107   0.0474  75.7828 0001500 319.2457 265.2813  1.00272925101651
ASIASAT 6               
1 40141U 14052A   26118.94201207 -.00000366  00000+0  00000+0 0  9999
2 40141   0.0245 266.1144 0000724 111.5444 298.2900  1.00269365 42581
OPTUS 10                
1 40146U 14054A   26118.66404685 -.00000152  00000+0  00000+0 0  9993
2 40146   0.0633  70.1978 0001859 331.3231 210.1809  1.00270910 42535
MEASAT-3B               
1 40147U 14054B   26118.89511177 -.00000245  00000+0  00000+0 0  9997
2 40147   0.0615  61.9906 0003298 338.2048 230.4373  1.00271278 42412
HIMAWARI-8              
1 40267U 14060A   26118.94608542  .00000000  00000+0  00000+0 0  9994
2 40267   0.0148 260.4576 0000974 146.5788 291.1265  1.00267517 42262
IRNSS-1C                
1 40269U 14061A   26118.93438346 -.00000160  00000+0  00000+0 0  9997
2 40269   6.3923  89.8642 0021601 358.1686 188.2349  1.00269306 42198
INTELSAT 30 (IS-30)     
1 40271U 14062A   26118.89945666 -.00000154  00000+0  00000+0 0  9997
2 40271   0.0159 296.4516 0000942 105.4287  43.7476  1.00269824  6296
ARSAT 1                 
1 40272U 14062B   26118.90405001  .00000000  00000+0  00000+0 0  9993
2 40272   0.0175  59.0150 0001980 339.1684  72.3392  1.00269173 42137
EUTELSAT 53A            
1 40277U 14064A   26118.57229162  .00000092  00000+0  00000+0 0  9996
2 40277   0.0171 255.9026 0000283  13.2742 206.3979  1.00275319 41078
GSAT-16                 
1 40332U 14078A   26118.00222936  .00000079  00000+0  00000+0 0  9998
2 40332   0.0671  81.9792 0007197 358.7004 191.1629  1.00265774 41607
DIRECTV 14              
1 40333U 14078B   26118.44431383  .00000000  00000+0  00000+0 0  9999
2 40333   0.0126 271.3553 0000358 238.7754 127.0056  1.00267617 41547
YAMAL 401               
1 40345U 14082A   26118.93611870 -.00000232  00000+0  00000+0 0  9990
2 40345   0.0198 219.1164 0000719 151.1110 273.6116  1.00274305 41426
ASTRA 2G                
1 40364U 14089A   26118.89572101  .00000146  00000+0  00000+0 0  9999
2 40364   0.0598  35.8324 0004904  11.1720 160.5002  1.00272576 41475
FENGYUN 2G              
1 40367U 14090A   26118.86669652 -.00000304  00000+0  00000+0 0  9996
2 40367   5.5168  73.3978 0002763 143.3543  51.8926  1.00271968 41500
MUOS-3                  
1 40374U 15002A   26118.70114036 -.00000132  00000+0  00000+0 0  9991
2 40374   4.4267  43.2789 0051062 181.3415 228.9278  1.00270179 41092
INMARSAT 5-F2           
1 40384U 15005A   26118.83610307  .00000000  00000+0  00000+0 0  9994
2 40384   0.0129 254.6292 0000686 108.9574  99.1952  1.00267743 40501
ABS-3A                  
1 40424U 15010A   26118.84632977 -.00000031  00000+0  00000+0 0  9998
2 40424   0.0132 259.6961 0001441  85.0324 173.7870  1.00269687 40884
EUTELSAT 115 WEST B     
1 40425U 15010B   26118.49905891 -.00000030  00000+0  00000+0 0  9997
2 40425   0.0143  97.5501 0000119  68.9380 114.7513  1.00271717 40896
EXPRESS-AM7             
1 40505U 15012A   26118.92615009  .00000147  00000+0  00000+0 0  9993
2 40505   0.0139 267.3952 0002982 130.5238 192.4037  1.00273354 40517
BEIDOU-3S IGSO-1S       
1 40549U 15019A   26112.98991377 -.00000171  00000+0  00000+0 0  9991
2 40549  49.2998 296.1212 0037208 189.9963 176.4804  1.00261100 40525
THOR 7                  
1 40613U 15022A   26118.84684977 -.00000012  00000+0  00000+0 0  9997
2 40613   0.0500  92.5384 0002863 300.9263 127.5656  1.00270891 40323
TURKMENALEM52E/MONACOSAT
1 40617U 15023A   26118.92857677  .00000100  00000+0  00000+0 0  9997
2 40617   0.0036 321.8847 0003182  83.8981 197.4270  1.00274523 40359
DIRECTV 15              
1 40663U 15026A   26118.54135148 -.00000108  00000+0  00000+0 0  9990
2 40663   0.0435  82.7699 0000289 109.4911 116.2651  1.00271490 39961
SKY MEXICO-1            
1 40664U 15026B   26118.95109888 -.00000238  00000+0  00000+0 0  9992
2 40664   0.0136 265.8175 0001977 131.6093  83.0817  1.00273198 39968
METEOSAT-11 (MSG-4)     
1 40732U 15034A   26118.92017007  .00000061  00000+0  00000+0 0  9998
2 40732   3.0787  71.3639 0001575 345.3208 140.9833  1.00264805  6724
STAR ONE C4             
1 40733U 15034B   26117.48338924  .00000000  00000+0  00000+0 0  9996
2 40733   0.0195  25.2863 0002673   5.1430 289.0652  1.00267950 39500
WGS F7 (USA 263)        
1 40746U 15036A   26118.31117453  .00000011  00000+0  00000+0 0  9999
2 40746   0.0137 271.0474 0000459 191.9567  40.3045  1.00270594 39371
INTELSAT 34 (IS-34)     
1 40874U 15039A   26118.90725669 -.00000289  00000+0  00000+0 0  9991
2 40874   0.0155 284.2005 0000276  62.0996 141.6972  1.00271288 39140
EUTELSAT 8 WEST B       
1 40875U 15039B   26118.84537644 -.00000070  00000+0  00000+0 0  9997
2 40875   0.0696   2.9746 0003886  35.7246 114.4538  1.00271914 39167
GSAT-6                  
1 40880U 15041A   26118.93438346 -.00000163  00000+0  00000+0 0  9998
2 40880   1.7926  83.1757 0003092 317.3627 235.3014  1.00272450 39103
INMARSAT 5-F3           
1 40882U 15042A   26118.52601141  .00000000  00000+0  00000+0 0  9990
2 40882   0.0130 244.0516 0001035 151.9978 189.3954  1.00270515 39078
MUOS-4                  
1 40887U 15044A   26118.91443587 -.00000095  00000+0  00000+0 0  9993
2 40887   4.2396  41.9277 0060161   1.8225 217.2665  1.00272657 39062
TJS-1                   
1 40892U 15046A   26118.61495219 -.00000161  00000+0  00000+0 0  9991
2 40892   0.1961  84.1100 0005644 328.6326 180.1881  1.00273706 39077
EXPRESS-AM8             
1 40895U 15048A   26118.84416309 -.00000115  00000+0  00000+0 0  9993
2 40895   0.0141 253.6010 0000338  70.6101 182.5027  1.00271957 38851
BEIDOU-3S IGSO-2S       
1 40938U 15053A   26118.85253253 -.00000182  00000+0  00000+0 0  9999
2 40938  49.3000 259.3658 0063588 190.3319 170.8116  1.00271232 38863
SKY MUSTER 1 (NBN1A)    
1 40940U 15054A   26118.94599875 -.00000282  00000+0  00000+0 0  9997
2 40940   0.0158 265.7513 0001854 130.1602 301.8143  1.00270948 38768
ARSAT 2                 
1 40941U 15054B   26118.90223000  .00000000  00000+0  00000+0 0  9995
2 40941   0.0170  65.0941 0002289 329.9153  65.6576  1.00269362 38810
MORELOS 3               
1 40946U 15056A   26118.89590331 -.00000047  00000+0  00000+0 0  9996
2 40946   3.1497  13.7113 0003069   1.5134  51.0756  1.00272694 38799
APSTAR-9                
1 40982U 15059A   26118.87799657 -.00000270  00000+0  00000+0 0  9997
2 40982   0.0630  64.1693 0000838 137.6500 113.0990  1.00270069 38621
TURKSAT 4B              
1 40984U 15060A   26118.92814344  .00000111  00000+0  00000+0 0  9991
2 40984   0.0362  67.3287 0002333 318.4756 215.2055  1.00270533 38604
ZHONGXING-2C            
1 41021U 15063A   26118.93880538 -.00000327  00000+0  00000+0 0  9996
2 41021   0.1477  92.2178 0006298 109.8690  96.2427  1.00271748 38489
GSAT-15                 
1 41028U 15065A   26118.94607081 -.00000261  00000+0  00000+0 0  9993
2 41028   0.0632 256.4553 0003834 148.5722 245.9825  1.00271520 38302
BADR-7 (ARABSAT-6B)     
1 41029U 15065B   26118.86016837  .00000141  00000+0  00000+0 0  9994
2 41029   0.0277 232.6802 0002217 356.7539 323.0367  1.00272110 38275
LAOSAT 1                
1 41034U 15067A   26118.94374541  .00000000  00000+0  00000+0 0  9994
2 41034   0.0105 248.1303 0002247 119.5090 317.5285  1.00270590 38366
TELSTAR 12V             
1 41036U 15068A   26118.70140036 -.00000123  00000+0  00000+0 0  9998
2 41036   0.0402  87.8457 0002547 308.7018  57.6294  1.00271841 38127
ELEKTRO-L 2             
1 41105U 15074A   26118.70148703 -.00000118  00000+0  00000+0 0  9995
2 41105   6.5724  71.1199 0002275 260.5780 122.9927  1.00270893 38013
